satname,norad_id,inclination_deg,eccentricity,mean_motion_rev_per_day,perigee_km,apogee_km,l1,l2
STARLINK-1394,45679,53.0471,0.000381,15.53441996,404.10032216844775,409.2703567911303,1 45679U 20035Y   26089.61454809  .00115600  00000+0  17737-2 0  9992,2 45679  53.0471 295.9033 0003810 223.5399 136.5311 15.53441996322407
STARLINK-1402,45685,53.0466,0.0002881,15.47960397,420.73407812528694,424.652716600247,1 45685U 20035AE  26089.27081850  .00093515  00000+0  17497-2 0  9996,2 45685  53.0466 285.1572 0002881 279.2574  80.8107 15.47960397322539
STARLINK-1404,45686,53.1601,0.000144,15.37142096,453.5813620321196,455.5491802862125,1 45686U 20035AF  26089.58336806  .00064686  00000+0  17489-2 0  9993,2 45686  53.1601 312.3919 0001440 109.6871 309.8929 15.37142096  5807
STARLINK-1413,45689,53.1613,0.0001399,15.30201741,474.2510878848025,476.1686543393389,1 45689U 20035AJ  26089.34165748  .00003123  00000+0  11753-3 0  9993,2 45689  53.1613 313.6532 0001399  95.5044 264.6117 15.30201741322058
STARLINK-1417,45693,53.052,0.0001796,15.13470444,524.3861556893626,526.8659873846582,1 45693U 20035AN  26089.07406244  .00011004  00000+0  62379-3 0  9994,2 45693  53.0520 321.8406 0001796 302.6943  57.3876 15.13470444321980
STARLINK-1420,45695,53.051,0.0003822,15.5769751,391.7341847118987,396.9110528444926,1 45695U 20035AQ  26089.55720624  .00151993  00000+0  19828-2 0  9992,2 45695  53.0510 281.4347 0003822 208.6564 151.4238 15.57697510322603
STARLINK-1422,45696,53.1601,0.0001381,15.30196306,474.2796496156843,476.1725485036459,1 45696U 20035AR  26089.34902222  .00001010  00000+0  46224-4 0  9992,2 45696  53.1601 313.6221 0001381  87.0392 273.0767 15.30196306322135
STARLINK-1351,45697,53.0485,0.0004103,15.56171321,395.9693229739587,401.5304363474079,1 45697U 20035AS  26089.61649253  .00133400  00000+0  18470-2 0  9994,2 45697  53.0485 280.5586 0004103 228.3112 131.7548 15.56171321322625
STARLINK-1400,45700,53.0483,0.0006459,15.54189191,400.1296635939534,408.89148773219495,1 45700U 20035AV  26089.61211280  .00131075  00000+0  19516-2 0  9992,2 45700  53.0483 282.2096 0006459 177.8269 182.2770 15.54189191322596
STARLINK-1403,45701,53.1566,0.0001169,15.29352511,476.94523447554275,478.54814008162884,1 45701U 20035AW  26089.57689172 -.00002155  00000+0 -62364-4 0  9996,2 45701  53.1566 299.6134 0001169  84.3327 275.7807 15.29352511322347
STARLINK-1407,45703,53.0308,0.0004809,15.64687666,370.89000822738944,377.38434553071056,1 45703U 20035AY  26089.58336806 -.00045924  00000+0 -46144-3 0  9990,2 45703  53.0308 213.5967 0004809 190.7023 341.3001 15.64687666  5930
STARLINK-1411,45706,53.0405,0.0003103,15.6663194,366.4559017192496,370.64289529816415,1 45706U 20035BB  26089.39411960  .00152407  00000+0  14055-2 0  9995,2 45706  53.0405 239.9237 0003103 262.7100  97.3562 15.66631940323169
STARLINK-1423,45710,53.0487,0.0006755,15.56541634,393.09792768849275,402.2520496852094,1 45710U 20035BF  26089.54697655  .00075970  00000+0  10473-2 0  9993,2 45710  53.0487 281.2049 0006755 199.2382 160.8374 15.56541634322599
STARLINK-1433,45711,53.0474,0.0006467,15.58846335,386.61720685532146,395.372401931123,1 45711U 20035BG  26089.60862852  .00136646  00000+0  17102-2 0  9998,2 45711  53.0474 279.6411 0006467 194.3487 165.7342 15.58846335322623
STARLINK-1434,45712,53.0513,0.0003974,15.28561011,477.3876987260246,482.83863595902767,1 45712U 20035BH  26089.24192146  .00057760  00000+0  20472-2 0  9994,2 45712  53.0513 284.7051 0003974 164.9149 195.1969 15.28561011322537
STARLINK-1465,45731,53.051,0.0005836,15.53137598,403.6116715621383,411.5319508865996,1 45731U 20038B   26089.51396927  .00083734  00000+0  13058-2 0  9993,2 45731  53.0510 122.9936 0005836   8.4156 351.6950 15.53137598319610
STARLINK-1471,45735,53.0466,0.0001652,15.50032312,415.50914255558564,417.7541341136921,1 45735U 20038F   26089.15804823  .00036039  00000+0  63660-3 0  9997,2 45735  53.0466  43.8790 0001652  28.0724 332.0373 15.50032312320703
STARLINK-1480,45741,53.0515,0.0001992,15.55064181,400.6154730093567,403.3166660722618,1 45741U 20038M   26089.48214709  .00097062  00000+0  14084-2 0  9996,2 45741  53.0515 117.3647 0001992  65.4209 294.7009 15.55064181319705
STARLINK-1500,45744,53.0349,0.0003093,15.35892157,456.15732488014055,460.38632737998523,1 45744U 20038Q   26089.31258657  .00031209  00000+0  88768-3 0  9993,2 45744  53.0349  95.9290 0003093   6.7251 353.3792 15.35892157319988
STARLINK-1504,45746,53.0229,0.0001074,15.5462203,402.5232429794096,403.97988524298125,1 45746U 20038S   26089.59019793  .00047263  00000+0  70503-3 0  9996,2 45746  53.0229  41.2453 0001074  61.1154 298.9964 15.54622030320761
STARLINK-1506,45747,53.0746,0.0003226,15.26629322,483.68290768346924,488.11158257842817,1 45747U 20038T   26089.48123649  .00009456  00000+0  36866-3 0  9997,2 45747  53.0746 106.1562 0003226 344.6457  15.4443 15.26629322319867
STARLINK-1464,45751,53.0496,0.0004032,15.46042312,425.5728030708442,431.0615277098159,1 45751U 20038X   26089.33173774  .00079090  00000+0  15852-2 0  9992,2 45751  53.0496 106.3159 0004032   8.6259 351.4816 15.46042312319846
STARLINK-1477,45754,53.0485,0.0002969,15.15351369,517.8640091826846,521.960070702602,1 45754U 20038AA  26089.48005269  .00013483  00000+0  72129-3 0  9999,2 45754  53.0485 118.3802 0002969  39.4698 320.6511 15.15351369319684
STARLINK-1478,45755,53.0482,0.0004269,15.58688344,388.56227863167805,394.34215390452755,1 45755U 20038AB  26089.43124021  .00113504  00000+0  14350-2 0  9999,2 45755  53.0482  97.3180 0004269   7.3059 352.8014 15.58688344319966
STARLINK-1493,45759,53.0509,0.0004819,15.53600475,402.95454597006847,409.4933130339223,1 45759U 20038AF  26089.57228865  .00099770  00000+0  15259-2 0  9996,2 45759  53.0509 104.0037 0004819  66.1540 293.9974 15.53600475319881
STARLINK-1494,45760,53.0484,0.0006374,15.78298503,330.9821387739412,339.5403788742897,1 45760U 20038AG  26089.17220826  .00152291  00000+0  85502-3 0  9990,2 45760  53.0484  49.4604 0006374  79.8341 280.3398 15.78298503320621
STARLINK-1502,45764,53.0496,0.0005985,15.50181606,412.1289656219733,420.2617814731084,1 45764U 20038AL  26089.33688659  .00088705  00000+0  15360-2 0  9996,2 45764  53.0496 107.1624 0005985  56.4608 303.6971 15.50181606319838
STARLINK-1470,45772,53.0434,0.0003149,15.29626717,474.7686639520298,479.0859834631001,1 45772U 20038AU  26089.20098668  .00049644  00000+0  17067-2 0  9991,2 45772  53.0434  78.9896 0003149  63.7281 296.4041 15.29626717320217
STARLINK-1482,45773,53.1579,0.0002312,15.3154911,469.6062630296983,472.7733917546848,1 45773U 20038AV  26089.31227979  .00039405  00000+0  12808-2 0  9995,2 45773  53.1579  95.1403 0002312  70.3276 289.7975 15.31549110320005
STARLINK-1496,45780,53.0504,0.0001239,15.51514992,411.4607399439237,413.14341074679305,1 45780U 20038BC  26089.34108830  .00100434  00000+0  16560-2 0  9990,2 45780  53.0504  78.7427 0001239 345.1035  14.9937 15.51514992320217
STARLINK-1513,45786,53.1599,0.0001341,15.30188513,474.33032863342396,476.1684068572522,1 45786U 20038BJ  26089.39528609  .00000764  00000+0  37943-4 0  9996,2 45786  53.1599  94.9744 0001341  93.2547 266.8608 15.30188513320017
STARLINK-1522,46027,53.0654,0.0002474,15.10020202,534.4277416478235,537.8489250827724,1 46027U 20055A   26089.53768727  .00033213  00000+0  20283-2 0  9999,2 46027  53.0654  32.4570 0002474 105.6438 254.4826 15.10020202312032
STARLINK-1523,46028,53.1589,0.0001654,15.30153568,474.2201431441299,476.48727787116513,1 46028U 20055B   26089.55363188  .00044916  00000+0  15216-2 0  9996,2 46028  53.1589  29.7941 0001654  76.1229 283.9956 15.30153568312092
STARLINK-1526,46029,53.1557,0.0001085,15.29355679,476.99335712730954,478.481081832937,1 46029U 20055C   26089.54359840  .00010619  00000+0  37980-3 0  9992,2 46029  53.1557  29.8121 0001085  96.4906 263.6218 15.29355679312084
STARLINK-1555,46032,53.1581,0.0001263,15.30180684,474.4071584696085,476.13832977097445,1 46032U 20055F   26089.20492563  .00005312  00000+0  19145-3 0  9996,2 46032  53.1581  31.4069 0001263  89.3027 270.8119 15.30180684312037
STARLINK-1556,46033,53.1569,9.82e-05,15.29369704,477.02206240764826,478.36854787237826,1 46033U 20055G   26088.26502020  .00062634  00000+0  21637-2 0  9990,2 46033  53.1569  35.7018 0000982  85.4321 274.6792 15.29369704311865
STARLINK-1557,46034,53.159,0.0001189,15.29368965,476.88235493491993,478.51267238226774,1 46034U 20055H   26089.56579248  .00016447  00000+0  58078-3 0  9992,2 46034  53.1590  29.5665 0001189  87.8344 272.2792 15.29368965312065
STARLINK-1558,46035,53.1585,0.0001222,15.30165184,474.48153336442374,476.1565180171028,1 46035U 20055J   26089.52518697  .00036396  00000+0  12363-2 0  9991,2 46035  53.1585  29.9284 0001222  66.1067 294.0062 15.30165184312085
STARLINK-1560,46036,53.1588,0.0001582,15.29358449,476.64434316850657,478.8135391522892,1 46036U 20055K   26089.10511068  .00003985  00000+0  15034-3 0  9998,2 46036  53.1588  31.7436 0001582  90.6837 269.4345 15.29358449312025
STARLINK-1567,46038,53.0889,0.0001456,15.5809844,392.1748748010914,394.14667671339066,1 46038U 20055M   26089.64056549  .01304142  00000+0  15397-1 0  9997,2 46038  53.0889  27.7038 0001456 139.7698 220.3422 15.58098440312119
STARLINK-1569,46039,53.1583,0.0001295,15.30201607,474.3227627395645,476.0977796828074,1 46039U 20055N   26089.52833555  .00017624  00000+0  60573-3 0  9998,2 46039  53.1583  29.9102 0001295 102.2432 257.8714 15.30201607312075
STARLINK-1582,46043,53.1602,0.000124,15.30194395,474.3819872582817,476.0816227219193,1 46043U 20055S   26089.33871229  .00006529  00000+0  23240-3 0  9994,2 46043  53.1602  30.7824 0001240  93.5813 266.5329 15.30194395312049
STARLINK-1591,46045,53.1631,0.0001708,15.30193108,474.065091718031,476.40620381450844,1 46045U 20055U   26089.10378645  .00000765  00000+0  37980-4 0  9998,2 46045  53.1631  31.8813 0001708  94.5889 265.5307 15.30193108311995
